NORAD_CAT_ID,OBJECT_NAME,OBJECT_TYPE,EPOCH,MEAN_MOTION,ECCENTRICITY,INCLINATION,RA_OF_ASC_NODE,ARG_OF_PERICENTER,MEAN_ANOMALY,BSTAR,MEAN_MOTION_DOT,MEAN_MOTION_DDOT,TLE_LINE0,TLE_LINE1,TLE_LINE2,SEMIMAJOR_AXIS,PERIOD,APOGEE,PERIGEE,DECAYED
52588.0,STARLINK-3917,PAYLOAD,2024-04-29 11:54:45,15.08842817,0.0001328,53.2195,288.1416,98.9977,261.1166,-0.00012364,-2.255e-05,0.0,0 STARLINK-3917,1 52588U 22051BE  24120.49636009 -.00002255  00000-0 -12364-3 0  9999,2 52588  53.2195 288.1416 0001328  98.9977 261.1166 15.08842817109050,6917.872,95.437,540.655,538.818,0.0
52588.0,STARLINK-3917,PAYLOAD,2024-04-29 18:16:17,15.08849253,0.0001342,53.2179,286.951,94.2576,265.8569,-6.6436e-05,-1.345e-05,0.0,0 STARLINK-3917,1 52588U 22051BE  24120.76131438 -.00001345  00000-0 -66436-4 0  9994,2 52588  53.2179 286.9510 0001342  94.2576 265.8569 15.08849253109096,6917.852,95.437,540.645,538.789,0.0
52588.0,STARLINK-3917,PAYLOAD,2024-04-30 14:56:18,15.08839843,0.0001354,53.2188,283.0862,98.6683,261.4463,8.746e-05,1.104e-05,0.0,0 STARLINK-3917,1 52588U 22051BE  24121.62244137  .00001104  00000-0  87460-4 0  9992,2 52588  53.2188 283.0862 0001354  98.6683 261.4463 15.08839843109228,6917.881,95.438,540.683,538.809,0.0
52588.0,STARLINK-3917,PAYLOAD,2024-04-30 18:07:05,15.08843091,0.0001349,53.2189,282.4915,96.8031,263.3114,0.00013264,1.824e-05,0.0,0 STARLINK-3917,1 52588U 22051BE  24121.75492002  .00001824  00000-0  13264-3 0  9991,2 52588  53.2189 282.4915 0001349  96.8031 263.3114 15.08843091109316,6917.871,95.437,540.669,538.803,0.0
52588.0,STARLINK-3917,PAYLOAD,2024-05-01 10:00:56,15.08845127,0.0001415,53.2188,279.5167,87.8711,272.2443,0.00016034,2.265e-05,0.0,0 STARLINK-3917,1 52588U 22051BE  24122.41731896  .00002265  00000-0  16034-3 0  9990,2 52588  53.2188 279.5167 0001415  87.8711 272.2443 15.08845127109349,6917.865,95.437,540.709,538.751,0.0
52588.0,STARLINK-3917,PAYLOAD,2024-05-02 03:30:10,15.08846856,0.0001337,53.2188,276.2453,82.8612,277.2532,0.00010071,1.316e-05,0.0,0 STARLINK-3917,1 52588U 22051BE  24123.14595604  .00001316  00000-0  10071-3 0  9997,2 52588  53.2188 276.2453 0001337  82.8612 277.2532 15.08846856109523,6917.859,95.437,540.649,538.8,0.0
52588.0,STARLINK-3917,PAYLOAD,2024-05-02 09:51:43,15.08839813,0.0002059,53.2174,275.0579,81.8918,278.2308,7.3674e-05,8.84e-06,0.0,0 STARLINK-3917,1 52588U 22051BE  24123.41092221  .00000884  00000-0  73674-4 0  9992,2 52588  53.2174 275.0579 0002059  81.8918 278.2308 15.08839813109565,6917.881,95.438,541.17,538.322,0.0
52588.0,STARLINK-3917,PAYLOAD,2024-05-02 14:37:53,15.0883249,0.0001903,53.2168,274.1638,85.4505,274.6705,-3.122e-05,-7.85e-06,0.0,0 STARLINK-3917,1 52588U 22051BE  24123.60964533 -.00000785  00000-0 -31220-4 0  9990,2 52588  53.2168 274.1638 0001903  85.4505 274.6705 15.08832490109524,6917.903,95.438,541.085,538.452,0.0
52588.0,STARLINK-3917,PAYLOAD,2024-05-03 14:28:39,15.08848526,0.0001504,53.2161,269.7027,87.2262,272.8903,0.00015792,2.227e-05,0.0,0 STARLINK-3917,1 52588U 22051BE  24124.60323756  .00002227  00000-0  15792-3 0  9993,2 52588  53.2161 269.7027 0001504  87.2262 272.8903 15.08848526109679,6917.854,95.437,540.76,538.679,0.0
52588.0,STARLINK-3917,PAYLOAD,2024-05-03 19:14:48,15.08854267,0.0001369,53.2175,268.8091,97.75,262.3648,0.00029897,4.475e-05,0.0,0 STARLINK-3917,1 52588U 22051BE  24124.80195524  .00004475  00000-0  29897-3 0  9993,2 52588  53.2175 268.8091 0001369  97.7500 262.3648 15.08854267109775,6917.837,95.437,540.649,538.755,0.0
52588.0,STARLINK-3917,PAYLOAD,2024-05-04 03:11:45,15.08836419,0.0001917,53.2154,267.3234,94.5591,265.562,0.00019969,2.891e-05,0.0,0 STARLINK-3917,1 52588U 22051BE  24125.13316585  .00002891  00000-0  19969-3 0  9991,2 52588  53.2154 267.3234 0001917  94.5591 265.5620 15.08836419109829,6917.891,95.438,541.082,538.43,0.0
52588.0,STARLINK-3917,PAYLOAD,2024-05-05 12:34:50,15.08886152,0.000123,53.2172,261.0798,96.6893,263.424,0.0018486,0.00029292,0.0,0 STARLINK-3917,1 52588U 22051BE  24126.52419286  .00029292  00000-0  18486-2 0  9993,2 52588  53.2172 261.0798 0001230  96.6893 263.4240 15.08886152110030,6917.739,95.435,540.455,538.753,0.0
52588.0,STARLINK-3917,PAYLOAD,2024-05-05 14:10:13,15.08894963,0.0001203,53.2175,260.7827,93.1888,266.9242,0.0021983,0.00034924,0.0,0 STARLINK-3917,1 52588U 22051BE  24126.59043059  .00034924  00000-0  21983-2 0  9995,2 52588  53.2175 260.7827 0001203  93.1888 266.9242 15.08894963109978,6917.712,95.434,540.41,538.745,0.0
52588.0,STARLINK-3917,PAYLOAD,2024-05-06 12:25:37,15.08824175,0.0001189,53.2174,256.6183,61.8703,298.2409,0.0012168,0.00019122,0.0,0 STARLINK-3917,1 52588U 22051BE  24127.51779032  .00019122  00000-0  12168-2 0  9993,2 52588  53.2174 256.6183 0001189  61.8703 298.2409 15.08824175110183,6917.929,95.439,540.616,538.971,0.0
52588.0,STARLINK-3917,PAYLOAD,2024-05-06 14:01:00,15.08822435,0.0001095,53.2177,256.3212,53.9916,306.1177,0.0021103,0.00033441,0.0,0 STARLINK-3917,1 52588U 22051BE  24127.58403284  .00033441  00000-0  21103-2 0  9992,2 52588  53.2177 256.3212 0001095  53.9916 306.1177 15.08822435110122,6917.934,95.439,540.557,539.042,0.0
52588.0,STARLINK-3917,PAYLOAD,2024-05-06 15:36:23,15.08826933,0.0001147,53.2176,256.0237,64.5214,295.5896,0.0022631,0.000359,0.0,0 STARLINK-3917,1 52588U 22051BE  24127.65027400  .00035900  00000-0  22631-2 0  9991,2 52588  53.2176 256.0237 0001147  64.5214 295.5896 15.08826933110139,6917.92,95.438,540.579,538.992,0.0
52588.0,STARLINK-3917,PAYLOAD,2024-05-07 01:08:43,15.08828296,0.0001287,53.218,254.2419,67.12,292.9928,0.0034392,0.00054855,0.0,0 STARLINK-3917,1 52588U 22051BE  24128.04772127  .00054855  00000-0  34392-2 0  9995,2 52588  53.2180 254.2419 0001287  67.1200 292.9928 15.08828296110260,6917.916,95.438,540.671,538.891,0.0
52588.0,STARLINK-3917,PAYLOAD,2024-05-07 12:16:25,15.08834313,0.0001229,53.218,252.1591,59.8271,300.2843,0.00067934,0.00010539,0.0,0 STARLINK-3917,1 52588U 22051BE  24128.51140209  .00010539  00000-0  67934-3 0  9997,2 52588  53.2180 252.1591 0001229  59.8271 300.2843 15.08834313110334,6917.898,95.438,540.613,538.913,0.0
52588.0,STARLINK-3917,PAYLOAD,2024-05-07 13:51:48,15.08835501,0.000122,53.2178,251.8613,60.2975,299.8138,0.00062476,9.668e-05,0.0,0 STARLINK-3917,1 52588U 22051BE  24128.57764203  .00009668  00000-0  62476-3 0  9996,2 52588  53.2178 251.8613 0001220  60.2975 299.8138 15.08835501110273,6917.894,95.438,540.603,538.915,0.0
52588.0,STARLINK-3917,PAYLOAD,2024-05-07 15:27:11,15.08838848,0.0001185,53.2182,251.5643,62.4194,297.6919,0.00066097,0.00010247,0.0,0 STARLINK-3917,1 52588U 22051BE  24128.64388127  .00010247  00000-0  66097-3 0  9999,2 52588  53.2182 251.5643 0001185  62.4194 297.6919 15.08838848110286,6917.884,95.438,540.569,538.929,0.0
52588.0,STARLINK-3917,PAYLOAD,2024-05-08 12:07:12,15.08831815,0.0001134,53.2174,247.6998,69.0156,291.0958,0.00013609,1.878e-05,0.0,0 STARLINK-3917,1 52588U 22051BE  24129.50500740  .00001878  00000-0  13609-3 0  9993,2 52588  53.2174 247.6998 0001134  69.0156 291.0958 15.08831815110481,6917.905,95.438,540.555,538.986,0.0
52588.0,STARLINK-3917,PAYLOAD,2024-05-08 13:42:35,15.08835242,0.0001083,53.2175,247.4039,64.5881,295.5223,0.0001583,2.232e-05,0.0,0 STARLINK-3917,1 52588U 22051BE  24129.57124701  .00002232  00000-0  15830-3 0  9992,2 52588  53.2175 247.4039 0001083  64.5881 295.5223 15.08835242110420,6917.895,95.438,540.509,539.011,0.0
52588.0,STARLINK-3917,PAYLOAD,2024-05-08 15:17:58,15.08835697,0.0001406,53.2179,247.104,70.1159,289.9985,0.00022739,3.332e-05,0.0,0 STARLINK-3917,1 52588U 22051BE  24129.63748778  .00003332  00000-0  22739-3 0  9993,2 52588  53.2179 247.1040 0001406  70.1159 289.9985 15.08835697110430,6917.894,95.438,540.731,538.786,0.0
52588.0,STARLINK-3917,PAYLOAD,2024-05-09 13:33:23,15.08840656,0.0001505,53.2171,242.9427,50.5025,309.61,0.00023691,3.485e-05,0.0,0 STARLINK-3917,1 52588U 22051BE  24130.56485061  .00003485  00000-0  23691-3 0  9997,2 52588  53.2171 242.9427 0001505  50.5025 309.6100 15.08840656110641,6917.878,95.438,540.785,538.702,0.0
52588.0,STARLINK-3917,PAYLOAD,2024-05-09 15:08:45,15.08847763,0.0001348,53.2177,242.6442,59.1253,300.9872,0.00035833,5.421e-05,0.0,0 STARLINK-3917,1 52588U 22051BE  24130.63108717  .00005421  00000-0  35833-3 0  9998,2 52588  53.2177 242.6442 0001348  59.1253 300.9872 15.08847763110583,6917.857,95.437,540.654,538.789,0.0
52588.0,STARLINK-3917,PAYLOAD,2024-05-10 13:24:09,15.08848905,0.000105,53.2171,238.4791,85.5812,274.53,0.00032617,4.908e-05,0.0,0 STARLINK-3917,1 52588U 22051BE  24131.55844666  .00004908  00000-0  32617-3 0  9996,2 52588  53.2171 238.4791 0001050  85.5812 274.5300 15.08848905110795,6917.853,95.437,540.445,538.992,0.0
52588.0,STARLINK-3917,PAYLOAD,2024-05-11 13:14:52,15.0897374,0.0001231,53.2161,234.017,96.4079,263.7053,0.0035259,0.00056483,0.0,0 STARLINK-3917,1 52588U 22051BE  24132.55200072  .00056483  00000-0  35259-2 0  9993,2 52588  53.2161 234.0170 0001231  96.4079 263.7053 15.08973740110942,6917.472,95.429,540.188,538.485,0.0
52588.0,STARLINK-3917,PAYLOAD,2024-05-11 16:25:39,15.08924142,0.0001242,53.2175,233.4257,57.2328,302.8784,0.00061143,9.479e-05,0.0,0 STARLINK-3917,1 52588U 22051BE  24132.68448181  .00009479  00000-0  61143-3 0  9997,2 52588  53.2175 233.4257 0001242  57.2328 302.8784 15.08924142110960,6917.623,95.432,540.347,538.629,0.0
52588.0,STARLINK-3917,PAYLOAD,2024-05-12 13:05:49,15.08650848,0.0001667,53.2169,229.5611,65.8184,294.2982,-0.0029893,-0.00047306,0.0,0 STARLINK-3917,1 52588U 22051BE  24133.54571552 -.00047306  00000-0 -29893-2 0  9990,2 52588  53.2169 229.5611 0001667  65.8184 294.2982 15.08650848111097,6918.459,95.45,541.477,539.17,0.0
52588.0,STARLINK-3917,PAYLOAD,2024-05-12 16:16:38,15.08608013,0.0001746,53.2166,228.9667,60.5824,299.5342,0.00086727,0.00013455,0.0,0 STARLINK-3917,1 52588U 22051BE  24133.67822555  .00013455  00000-0  86727-3 0  9992,2 52588  53.2166 228.9667 0001746  60.5824 299.5342 15.08608013111117,6918.59,95.452,541.663,539.247,0.0
